ERS-1                   
1 21574U 91050A   26067.02906674  .00000451  00000+0  15895-3 0  9999
2 21574  98.7884  85.2220 0031538 205.4587 154.5048 14.39448063815491
ARIANE 40 R/B           
1 21610U 91050F   26067.15331559  .00000416  00000+0  13694-3 0  9994
2 21610  98.2014 119.4473 0004353  84.5937 275.5750 14.42892482818772
INTERCOSMOS 25          
1 21819U 91086A   26067.08920959  .00001629  00000+0  31231-3 0  9998
2 21819  82.6049 310.9762 1486999 120.3783 255.2719 12.11993967496491
SL-8 R/B                
1 21876U 92008B   26067.05938203  .00000011  00000+0 -50561-5 0  9998
2 21876  82.9225 268.9915 0035462 137.7699 333.1890 13.75969785709199
SL-8 R/B                
1 21938U 92020B   26067.16497209  .00000108  00000+0  96323-4 0  9990
2 21938  82.9338 154.8934 0027732 303.2408 119.2347 13.75549419700926
USA 81                  
1 21949U 92023A   26067.12193580  .00000228  00000+0  77042-4 0  9996
2 21949  85.0087 132.3456 0002515  78.8208 281.3267 14.32367470 94565
COSMOS 2219             
1 22219U 92076A   26067.10624016  .00000192  00000+0  12555-3 0  9993
2 22219  71.0630  21.3770 0019098 209.1203 150.8856 14.14092003718158
SL-16 R/B               
1 22220U 92076B   26067.09464582 -.00000128  00000+0 -40045-4 0  9990
2 22220  71.0006 191.7329 0010495  99.2965  73.3388 14.16860082721609
COSMOS 2221             
1 22236U 92080A   26067.09917348  .00002319  00000+0  20322-3 0  9992
2 22236  82.5009 280.6049 0013898 192.5803 167.5074 14.96194104780551
SL-16 R/B               
1 22285U 92093B   26067.11408539 -.00000199  00000+0 -77649-4 0  9991
2 22285  71.0242   7.5728 0006380 295.2642  64.7820 14.15448412712936
COSMOS 2228             
1 22286U 92094A   26067.11659052  .00003224  00000+0  27604-3 0  9996
2 22286  82.5154 238.8166 0016857 310.3529  49.6221 14.97181932775829
SL-16 R/B               
1 22566U 93016B   26066.80097334  .00000212  00000+0  13337-3 0  9998
2 22566  71.0068 219.1474 0011645 316.8205  43.2004 14.15307984701907
